ONEWEB-0398             
1 50478U 21132K   26156.38512772  .00000590  00000+0  16293-2 0  9994
2 50478  87.8903  23.4065 0001774  94.0979 266.0352 13.11418834214069
ONEWEB-0399             
1 50479U 21132L   26156.37156324  .00000113  00000+0  28419-3 0  9996
2 50479  87.8906  23.4200 0002292  79.2274 280.9112 13.11418902214057
ONEWEB-0400             
1 50480U 21132M   26156.47550882 -.00000104  00000+0 -29666-3 0  9993
2 50480  87.9166 337.7749 0001788  97.6141 262.5194 13.18684526220061
ONEWEB-0401             
1 50481U 21132N   26156.52102966 -.00000091  00000+0 -26436-3 0  9993
2 50481  87.9168 337.7631 0001758  82.4036 277.7296 13.18687014220073
ONEWEB-0402             
1 50482U 21132P   26156.48394926 -.00000053  00000+0 -16656-3 0  9999
2 50482  87.9166 337.7601 0001725  74.7309 285.4014 13.18688217220092
ONEWEB-0403             
1 50483U 21132Q   26156.50922498 -.00000092  00000+0 -26648-3 0  9999
2 50483  87.9165 337.7787 0002020  91.9434 268.1929 13.18687118220054
ONEWEB-0404             
1 50484U 21132R   26156.35290677 -.00000503  00000+0 -14539-2 0  9992
2 50484  87.8898  23.4227 0002111  86.4533 273.6836 13.11416893214149
ONEWEB-0405             
1 50485U 21132S   26156.52273323  .00000005  00000+0 -19965-4 0  9997
2 50485  87.9170 337.7606 0001758 105.4493 254.6834 13.18686215220451
ONEWEB-0406             
1 50486U 21132T   26156.51428703  .00000032  00000+0  48131-4 0  9997
2 50486  87.9159 337.7794 0002411  91.1095 269.0313 13.18684686220084
ONEWEB-0407             
1 50487U 21132U   26156.50754846 -.00000028  00000+0 -10423-3 0  9996
2 50487  87.9167 337.7723 0001583  88.8095 271.3218 13.18686513220023
ONEWEB-0409             
1 50488U 21132V   26156.35120777 -.00000430  00000+0 -12499-2 0  9991
2 50488  87.8908  23.4090 0002027  88.4631 271.6729 13.11417926214035
ONEWEB-0412             
1 50489U 21132W   26156.49573400 -.00000061  00000+0 -18773-3 0  9994
2 50489  87.9167 337.7837 0001823  81.7649 278.3690 13.18687498220119
ONEWEB-0413             
1 50490U 21132X   26156.50078987 -.00000047  00000+0 -15280-3 0  9992
2 50490  87.9156 337.7821 0001567  82.2750 277.8560 13.18680216220050
ONEWEB-0414             
1 50491U 21132Y   26156.48562455  .00000045  00000+0  82549-4 0  9997
2 50491  87.9167 337.7659 0001919  85.9780 274.1571 13.18684778220088
ONEWEB-0417             
1 50492U 21132Z   26156.49405392  .00000048  00000+0  89777-4 0  9998
2 50492  87.9160 337.7847 0002039  90.7909 269.3457 13.18684979220062
ONEWEB-0418             
1 50493U 21132AA  26156.50404318 -.00000059  00000+0 -18311-3 0  9997
2 50493  87.9167 337.7811 0002108  92.1023 268.0351 13.18685855220121
ONEWEB-0419             
1 50494U 21132AB  26156.52245844  .00000051  00000+0  96512-4 0  9997
2 50494  87.9166 337.7771 0001986  97.4071 262.7286 13.18665592220045
ONEWEB-0420             
1 50495U 21132AC  26156.48731015  .00000000  00000+0 -32433-4 0  9990
2 50495  87.9157 337.7882 0001619  91.9145 268.2172 13.18684807220037
ONEWEB-0421             
1 50496U 21132AD  26156.48056080 -.00000957  00000+0 -24592-2 0  9990
2 50496  87.9158 337.7864 0002098  82.2208 277.9162 13.18691504220076
ONEWEB-0424             
1 50497U 21132AE  26156.51765999 -.00000062  00000+0 -18906-3 0  9991
2 50497  87.9166 337.7769 0001937 100.1723 259.9628 13.18687487220109
ONEWEB-0426             
1 50498U 21132AF  26156.47636546 -.00000062  00000+0 -19093-3 0  9990
2 50498  87.9167 337.7761 0002444  83.2460 276.8950 13.18687980220043
ONEWEB-0427             
1 50499U 21132AG  26156.51597691  .00006810  00000+0  17237-1 0  9994
2 50499  87.9166 337.7568 0002328  97.1415 262.9982 13.18652212220077
ONEWEB-0429             
1 50500U 21132AH  26156.50248773 -.00000059  00000+0 -18328-3 0  9995
2 50500  87.9159 337.7852 0001691  90.4903 269.6423 13.18685056220041
ONEWEB-0430             
1 50501U 21132AJ  26156.49068450 -.00000054  00000+0 -16990-3 0  9994
2 50501  87.9158 337.7856 0001653  98.4127 261.7192 13.18685409220081
ONEWEB-0432             
1 50502U 21132AK  26156.44764753  .00000009  00000+0 -10925-4 0  9991
2 50502  87.9165 337.7664 0001822 111.3958 248.7369 13.18682886220034
ONEWEB-0440             
1 50503U 21132AL  26156.51091255  .00000055  00000+0  10552-3 0  9995
2 50503  87.9166 337.7766 0001744  79.9660 280.1669 13.18684821220035
ONEWEB-0450             
1 50504U 21132AM  26156.50431720 -.00000084  00000+0 -24658-3 0  9996
2 50504  87.9156 337.7847 0001631  91.9867 268.1452 13.18687294220069
ONEWEB-0410             
1 51622U 22012A   26156.29529304  .00000027  00000+0  35059-4 0  9991
2 51622  87.9153   8.2217 0003163  86.0938 274.0555 13.17647764212131
ONEWEB-0411             
1 51623U 22012B   26156.40664485 -.00000291  00000+0 -86980-3 0  9998
2 51623  87.8859  38.6111 0001359  99.1848 260.9434 13.10376395207747
ONEWEB-0415             
1 51624U 22012C   26155.71611196 -.00000181  00000+0 -55422-3 0  9998
2 51624  87.8851  38.7497 0001692  94.6857 265.4464 13.10378067207659
